STARLINK-32453          
1 61671U 24193L   26197.45077223 -.00000887  00000+0 -16804-4 0  9992
2 61671  53.1598 212.7071 0001277  72.3804 287.7337 15.31706838 96245
STARLINK-32443          
1 61672U 24193M   26197.43676677 -.00000582  00000+0 -69968-5 0  9991
2 61672  53.1595 212.6169 0001099  93.3927 266.7200 15.31701972 96241
STARLINK-32417          
1 61673U 24193N   26197.41275577  .00002589  00000+0  95114-4 0  9992
2 61673  53.1572 212.4684 0001032  49.6023 310.5068 15.31711961 96244
STARLINK-32326          
1 61674U 24193P   26197.47334720  .00000755  00000+0  36077-4 0  9991
2 61674  53.1573 212.1347 0001214  75.0798 285.0338 15.31707644 96253
STARLINK-32294          
1 61675U 24193Q   26197.58335648  .00005027  00000+0  17354-3 0  9997
2 61675  53.1556 211.4731 0001072  85.2806 238.9593 15.31719433  5810
STARLINK-32309          
1 61676U 24193R   26197.45280159 -.00000050  00000+0  96432-5 0  9998
2 61676  53.1590 210.5908 0001122  86.7676 273.3455 15.34389337 96271
STARLINK-32323          
1 61677U 24193S   26197.28886785  .00000548  00000+0  27359-4 0  9999
2 61677  53.1582 210.9907 0001197  90.5491 269.5649 15.34385674 96256
STARLINK-32363          
1 61678U 24193T   26197.41282763  .00000863  00000+0  36681-4 0  9999
2 61678  53.1587 210.3423 0001131  86.2739 273.8393 15.34384899 96278
STARLINK-32395          
1 61679U 24193U   26197.43682571  .00000031  00000+0  13182-4 0  9991
2 61679  53.1594 213.3236 0001283  87.3401 272.7747 15.30190646 96236
STARLINK-32412          
1 61680U 24193V   26197.42277229  .00000567  00000+0  30039-4 0  9996
2 61680  53.1591 212.5274 0001176  90.8967 269.2169 15.31697000 96242
STARLINK-32426          
1 61681U 24193W   26197.43366318 -.00000105  00000+0  85743-5 0  9998
2 61681  53.1590 213.3033 0001232  84.5882 275.5260 15.30186888 96230
STARLINK-32429          
1 61682U 24193X   26197.30160423 -.00000260  00000+0  33717-5 0  9990
2 61682  53.1597 213.1879 0001177  85.5957 274.5179 15.31695114 96221
STARLINK-11335 [DTC]    
1 61687U 24195A   26197.14133158  .00000174  00000+0  62897-5 0  9998
2 61687  53.1600 113.3930 0000934  72.3475 287.7645 15.69715895 99204
STARLINK-11344 [DTC]    
1 61688U 24195B   26197.07275841  .00000140  00000+0  60043-5 0  9991
2 61688  53.1594 113.6744 0000688 115.9066 244.2023 15.69710668 99198
STARLINK-11312 [DTC]    
1 61689U 24195C   26197.06785170 -.00000262  00000+0  26894-5 0  9994
2 61689  53.1589 113.6409 0000757 129.0606 231.0480 15.69715193 99193
STARLINK-11340 [DTC]    
1 61690U 24195D   26197.06294929  .00000890  00000+0  12199-4 0  9991
2 61690  53.1596 113.6074 0001136 113.3988 246.7150 15.69712055 99193
STARLINK-11339 [DTC]    
1 61691U 24195E   26197.18047621  .00000283  00000+0  71936-5 0  9991
2 61691  53.1591 112.9123 0001014 100.2429 259.8703 15.69712633 99210
STARLINK-11315 [DTC]    
1 61692U 24195F   26197.18538052 -.00000338  00000+0  20601-5 0  9990
2 61692  53.1579 112.9461 0000701 113.5026 246.6065 15.69713439 99214
STARLINK-11366 [DTC]    
1 61693U 24195G   26197.17557581  .00000881  00000+0  12132-4 0  9999
2 61693  53.1597 112.8797 0001172 107.8188 252.2958 15.69716230 99210
STARLINK-11348 [DTC]    
1 61694U 24195H   26197.48901252 -.00000612  00000+0 -19776-6 0  9999
2 61694  53.1585 111.2804 0000659  85.1526 274.9567 15.69708568 99260
STARLINK-11327 [DTC]    
1 61695U 24195J   26197.03842208 -.00000743  00000+0 -12753-5 0  9998
2 61695  53.1595 113.4454 0001010  72.6903 287.4226 15.69711411 99193
STARLINK-11341 [DTC]    
1 61696U 24195K   26197.03351526  .00000354  00000+0  77783-5 0  9997
2 61696  53.1596 113.4123 0001232  77.4501 282.6654 15.69711773 99194
STARLINK-11346 [DTC]    
1 61697U 24195L   26197.47429822 -.00001068  00000+0 -39541-5 0  9996
2 61697  53.1598 111.1815 0001316  87.7537 272.3632 15.69707319 99267
STARLINK-11296 [DTC]    
1 61699U 24195N   26197.14613133  .00001462  00000+0  16916-4 0  9998
2 61699  53.1596 112.6843 0001095 109.7179 250.3958 15.69725867 99215
STARLINK-32349          
1 61700U 24195P   26197.44593676  .00001001  00000+0  45902-4 0  9999
2 61700  53.1603 277.3709 0000756  89.9551 270.1536 15.30195065 96895
STARLINK-32461          
1 61701U 24195Q   26197.47220319  .00000922  00000+0  38436-4 0  9999
2 61701  53.1587 274.7026 0000853  78.2325 281.8773 15.34387758 96931
STARLINK-32299          
1 61702U 24195R   26197.59406074 -.00001052  00000+0 -20033-4 0  9998
2 61702  53.1571 274.0393 0001012  91.8753 268.2365 15.34382342 97020
STARLINK-32387          
1 61704U 24195T   26197.63394398  .00006487  00000+0  20293-3 0  9992
2 61704  53.1580 273.5759 0001119  86.3441 273.7690 15.34405316 96964
STARLINK-32515          
1 61705U 24195U   26197.59661418  .00001559  00000+0  64745-4 0  9994
2 61705  53.1609 276.8858 0001258  92.5927 267.5218 15.30196589 96912
STARLINK-32533          
1 61706U 24195V   26197.63604736  .00001487  00000+0  55133-4 0  9991
2 61706  53.1601 273.5858 0001235  58.0522 302.0601 15.34395374 96965
