OBJECT_NAME,OBJECT_ID,EPOCH,MEAN_MOTION,ECCENTRICITY,INCLINATION,RA_OF_ASC_NODE,ARG_OF_PERICENTER,MEAN_ANOMALY,EPHEMERIS_TYPE,CLASSIFICATION_TYPE,NORAD_CAT_ID,ELEMENT_SET_NO,REV_AT_EPOCH,BSTAR,MEAN_MOTION_DOT,MEAN_MOTION_DDOT
STARLINK-32453,2024-193L,2026-07-16T10:49:06.720672,15.31706838,.00012775,53.1598,212.7071,72.3804,287.7337,0,U,61671,999,9624,-.16803837E-4,-.887E-5,0
STARLINK-32443,2024-193M,2026-07-16T10:28:56.648928,15.31701972,.00010992,53.1595,212.6169,93.3927,266.7200,0,U,61672,999,9624,-.6996774E-5,-.582E-5,0
STARLINK-32417,2024-193N,2026-07-16T09:54:22.098528,15.31711961,.00010324,53.1572,212.4684,49.6023,310.5068,0,U,61673,999,9624,.95113668E-4,.2589E-4,0
STARLINK-32326,2024-193P,2026-07-16T11:21:37.198080,15.31707644,.00012149,53.1573,212.1347,75.0798,285.0338,0,U,61674,999,9625,.36077303E-4,.755E-5,0
STARLINK-32294,2024-193Q,2026-07-16T14:00:01.999872,15.31719433,.0001072,53.1556,211.4731,85.2806,238.9593,0,U,61675,999,581,.17353516E-3,.5027E-4,0
STARLINK-32309,2024-193R,2026-07-16T10:52:02.057376,15.34389337,.00011224,53.1590,210.5908,86.7676,273.3455,0,U,61676,999,9627,.9643167E-5,-.5E-6,0
STARLINK-32323,2024-193S,2026-07-16T06:55:58.182240,15.34385674,.00011978,53.1582,210.9907,90.5491,269.5649,0,U,61677,999,9625,.2735858E-4,.548E-5,0
STARLINK-32363,2024-193T,2026-07-16T09:54:28.307232,15.34384899,.00011319,53.1587,210.3423,86.2739,273.8393,0,U,61678,999,9627,.36681159E-4,.863E-5,0
STARLINK-32395,2024-193U,2026-07-16T10:29:01.741344,15.30190646,.00012832,53.1594,213.3236,87.3401,272.7747,0,U,61679,999,9623,.13181622E-4,.31E-6,0
STARLINK-32412,2024-193V,2026-07-16T10:08:47.525856,15.31697000,.00011767,53.1591,212.5274,90.8967,269.2169,0,U,61680,999,9624,.3003866E-4,.567E-5,0
STARLINK-32426,2024-193W,2026-07-16T10:24:28.498752,15.30186888,.00012323,53.1590,213.3033,84.5882,275.5260,0,U,61681,999,9623,.8574319E-5,-.105E-5,0
STARLINK-32429,2024-193X,2026-07-16T07:14:18.605472,15.31695114,.00011774,53.1597,213.1879,85.5957,274.5179,0,U,61682,999,9622,.3371723E-5,-.26E-5,0
STARLINK-11335 [DTC],2024-195A,2026-07-16T03:23:31.048512,15.69715895,.00009349,53.1600,113.3930,72.3475,287.7645,0,U,61687,999,9920,.6289747E-5,.174E-5,0
STARLINK-11344 [DTC],2024-195B,2026-07-16T01:44:46.326624,15.69710668,.00006885,53.1594,113.6744,115.9066,244.2023,0,U,61688,999,9919,.6004309E-5,.14E-5,0
STARLINK-11312 [DTC],2024-195C,2026-07-16T01:37:42.386880,15.69715193,.0000757,53.1589,113.6409,129.0606,231.0480,0,U,61689,999,9919,.2689424E-5,-.262E-5,0
STARLINK-11340 [DTC],2024-195D,2026-07-16T01:30:38.818656,15.69712055,.00011367,53.1596,113.6074,113.3988,246.7150,0,U,61690,999,9919,.12199066E-4,.89E-5,0
STARLINK-11339 [DTC],2024-195E,2026-07-16T04:19:53.144544,15.69712633,.00010144,53.1591,112.9123,100.2429,259.8703,0,U,61691,999,9921,.7193562E-5,.283E-5,0
STARLINK-11315 [DTC],2024-195F,2026-07-16T04:26:56.876928,15.69713439,.00007014,53.1579,112.9461,113.5026,246.6065,0,U,61692,999,9921,.2060094E-5,-.338E-5,0
STARLINK-11366 [DTC],2024-195G,2026-07-16T04:12:49.749984,15.69716230,.00011729,53.1597,112.8797,107.8188,252.2958,0,U,61693,999,9921,.12131576E-4,.881E-5,0
STARLINK-11348 [DTC],2024-195H,2026-07-16T11:44:10.681728,15.69708568,.0000659,53.1585,111.2804,85.1526,274.9567,0,U,61694,999,9926,-.197761E-6,-.612E-5,0
STARLINK-11327 [DTC],2024-195J,2026-07-16T00:55:19.667712,15.69711411,.00010107,53.1595,113.4454,72.6903,287.4226,0,U,61695,999,9919,-.1275252E-5,-.743E-5,0
STARLINK-11341 [DTC],2024-195K,2026-07-16T00:48:15.718464,15.69711773,.00012326,53.1596,113.4123,77.4501,282.6654,0,U,61696,999,9919,.7778316E-5,.354E-5,0
STARLINK-11346 [DTC],2024-195L,2026-07-16T11:22:59.366208,15.69707319,.00013166,53.1598,111.1815,87.7537,272.3632,0,U,61697,999,9926,-.3954102E-5,-.1068E-4,0
STARLINK-11296 [DTC],2024-195N,2026-07-16T03:30:25.746912,15.69725867,.00010958,53.1596,112.6843,109.7179,250.3958,0,U,61699,999,9921,.16916092E-4,.1462E-4,0
STARLINK-32349,2024-195P,2026-07-16T10:42:08.936064,15.30195065,.00007561,53.1603,277.3709,89.9551,270.1536,0,U,61700,999,9689,.45901803E-4,.1001E-4,0
STARLINK-32461,2024-195Q,2026-07-16T11:19:58.355616,15.34387758,.00008532,53.1587,274.7026,78.2325,281.8773,0,U,61701,999,9693,.38436092E-4,.922E-5,0
STARLINK-32299,2024-195R,2026-07-16T14:15:26.847936,15.34382342,.00010124,53.1571,274.0393,91.8753,268.2365,0,U,61702,999,9702,-.20032575E-4,-.1052E-4,0
STARLINK-32387,2024-195T,2026-07-16T15:12:52.759872,15.34405316,.00011191,53.1580,273.5759,86.3441,273.7690,0,U,61704,999,9696,.20292867E-3,.6487E-4,0
STARLINK-32515,2024-195U,2026-07-16T14:19:07.465152,15.30196589,.00012581,53.1609,276.8858,92.5927,267.5218,0,U,61705,999,9691,.64745234E-4,.1559E-4,0
STARLINK-32533,2024-195V,2026-07-16T15:15:54.491904,15.34395374,.00012352,53.1601,273.5858,58.0522,302.0601,0,U,61706,999,9696,.55133262E-4,.1487E-4,0
